{
  "type": "FeatureCollection",
  "metadata": {
    "stage": "01_creation",
    "stage_name": "创世阶段",
    "description": "宇宙开辟、天地形成阶段的神话",
    "core_sources": [
      "《三五历纪》（三国·吴·徐整）",
      "《五运历年记》（三国·吴·徐整）",
      "《淮南子·览冥训》（西汉·刘安）",
      "《淮南子·天文训》（西汉·刘安）",
      "《风俗通义·皇霸》卷一（东汉·应劭）"
    ],
    "total_features": 4
  },
  "features": [
    {
      "type": "Feature",
      "geometry": null,
      "properties": {
        "id": "01-01",
        "name": "盘古开天",
        "category": "创世神话",
        "stage": "01_creation",
        "source_text": "《三五历纪》（三国·吴·徐整），佚文见《艺文类聚》卷一引、《太平御览》卷二引",
        "source_quote": "天地浑沌如鸡子，盘古生其中。万八千岁，天地开辟，阳清为天，阴浊为地。盘古在其中，一日九变，神于天，圣于地。天日高一丈，地日厚一丈，盘古日长一丈。如此万八千岁，天数极高，地数极深，盘古极长。",
        "commentary": "原书已佚，仅存佚文。袁珂《古神话选释》有辑录。原书未载具体地理方位。",
        "modern_identification": "袁珂认为盘古神话源于南方少数民族（盘瓠传说影响）；茅盾《中国神话研究ABC》认为盘古神话可能受印度创世神话影响。盘古文献晚出（三国徐整），非先秦旧闻。",
        "modern_source": "袁珂《古神话选释》（1979）；茅盾《中国神话研究ABC》（1929）",
        "precision": "legendary",
        "precision_note": "盘古开天为宇宙创世神话，无具体地理方位。盘古文献晚出（三国徐整），非先秦旧闻。",
        "coordinates_basis": "无古籍相对方位记载，无法推算示意坐标。",
        "modern_coordinates": null,
        "confidence": 0.3,
        "dispute": "盘古文献晚出（三国徐整），非先秦旧闻；盘古与盘瓠关系有争议；是否受外来影响有争议。",
        "tags": ["创世", "盘古", "开天", "晚出文献"]
      }
    },
    {
      "type": "Feature",
      "geometry": null,
      "properties": {
        "id": "01-02",
        "name": "女娲造人",
        "category": "创世神话",
        "stage": "01_creation",
        "source_text": "《风俗通义·皇霸》卷一（东汉·应劭），见王利器《风俗通义校注》",
        "source_quote": "天地开辟，未有人民，女娲抟黄土作人。剧务，力不暇供，乃引绳于泥中，举以为人。",
        "commentary": "王利器校注引《淮南子》《潜夫论》等参证。原文未载具体地理方位。",
        "modern_identification": "袁珂认为女娲造人神话反映母系氏族社会；黄土作人与黄土高原地理有关联。女娲造人（《风俗通义》）与女娲补天（《淮南子》）分属不同文献，不合并因果。",
        "modern_source": "袁珂《中国神话传说》（2004）；王利器《风俗通义校注》（1981）",
        "precision": "legendary",
        "precision_note": "女娲造人神话无具体地理方位。女娲造人（《风俗通义》）与女娲补天（《淮南子》）分属不同文献，不合并因果。",
        "coordinates_basis": "无古籍相对方位记载，无法推算示意坐标。",
        "modern_coordinates": null,
        "confidence": 0.3,
        "dispute": "女娲造人（《风俗通义》）与女娲补天（《淮南子》）分属不同文献，不合并因果。",
        "tags": ["创世", "女娲", "造人", "风俗通义"]
      }
    },
    {
      "type": "Feature",
      "geometry": {
        "type": "Point",
        "coordinates": [112.5, 37.5]
      },
      "properties": {
        "id": "01-03",
        "name": "女娲补天",
        "category": "创世神话",
        "stage": "01_creation",
        "source_text": "《淮南子·览冥训》（西汉·刘安），高诱注",
        "source_quote": "往古之时，四极废，九州裂，天不兼覆，地不周载。火爁焱而不灭，水浩洋而不息。猛兽食颛民，鸷鸟攫老弱。于是女娲炼五色石以补苍天，断鳌足以立四极，杀黑龙以济冀州，积芦灰以止淫水。",
        "commentary": "高诱注：'女娲，阴帝，佐虙牺治者也。'刘文典《淮南鸿烈集解》引王念孙、俞樾说。原文未明言补天具体地点，仅提及'冀州'为九州之一。",
        "modern_identification": "王晖《中国上古史实揭秘》认为冀州在今山西、河北一带；袁珂认为补天神话源于陨石雨或地震灾害记忆。补天地点'冀州'范围有争议。",
        "modern_source": "王晖《中国上古史实揭秘》（2008）；袁珂《中国神话传说》（2004）",
        "precision": "approximate",
        "precision_note": "原文仅提及'冀州'，未载具体山岳或城邑。冀州为古九州之一，范围较广，今地对应存在争议。",
        "coordinates_basis": "按古籍相对方位推算的示意坐标（WGS84）。原文记载女娲补天于'冀州'，冀州为古九州之一，位于中原地区。此处取今山西南部至河北一带的中心位置作为示意坐标。",
        "modern_coordinates": [112.5, 37.5],
        "confidence": 0.6,
        "dispute": "补天地点'冀州'范围有争议；女娲与伏羲关系（兄妹/夫妻/无关系）有争议。",
        "tags": ["创世", "女娲", "补天", "冀州", "九州"]
      }
    },
    {
      "type": "Feature",
      "geometry": {
        "type": "Point",
        "coordinates": [95.0, 40.0]
      },
      "properties": {
        "id": "01-04",
        "name": "共工怒触不周山",
        "category": "创世神话",
        "stage": "01_creation",
        "source_text": "《淮南子·天文训》（西汉·刘安），高诱注",
        "source_quote": "昔者共工与颛顼争为帝，怒而触不周之山，天柱折，地维绝。天倾西北，故日月星辰移焉；地不满东南，故水潦尘埃归焉。",
        "commentary": "高诱注：'不周山，昆仑之西北。'刘文典《淮南鸿烈集解》。郭璞注《山海经》以不周山为《西山经》之山。",
        "modern_identification": "王晖认为不周山在今甘肃祁连山一带；袁珂认为不周山在今昆仑山脉西北段；杨宽认为不周山为神话地名，难以实指。共工触山（《天文训》）与女娲补天（《览冥训》）在原文中无因果关系，分开标注。",
        "modern_source": "王晖《中国上古史实揭秘》（2008）；袁珂《中国神话传说》（2004）；杨宽《中国古代神话与传说》（2005）",
        "precision": "disputed",
        "precision_note": "不周山具体位置有争议（甘肃祁连山/昆仑山脉西北段/其他）。共工触山（《天文训》）与女娲补天（《览冥训》）在原文中无因果关系，分开标注。",
        "coordinates_basis": "按古籍相对方位推算的示意坐标（WGS84）。高诱注'不周山，昆仑之西北'，今取昆仑山脉西北段（今甘肃祁连山一带）作为示意坐标。",
        "modern_coordinates": [95.0, 40.0],
        "confidence": 0.4,
        "dispute": "不周山具体位置有争议（甘肃祁连山/昆仑山脉西北段/其他）；共工触山（《天文训》）与女娲补天（《览冥训》）在原文中无因果关系，分开标注。",
        "tags": ["创世", "共工", "不周山", "昆仑"]
      }
    }
  ]
}
