{
  "type": "FeatureCollection",
  "metadata": {
    "stage": "07_mu_tianzi",
    "stage_name": "周穆王西巡",
    "description": "西周中期周穆王西巡的神话",
    "core_sources": [
      "《穆天子传》卷二、卷三",
      "《史记·周本纪》"
    ],
    "total_features": 4
  },
  "features": [
    {
      "type": "Feature",
      "geometry": {
        "type": "Point",
        "coordinates": [86.0, 40.0]
      },
      "properties": {
        "id": "07-01",
        "name": "穆天子见西王母",
        "category": "周穆王西巡",
        "stage": "07_mu_tianzi",
        "source_text": "《穆天子传》卷三（郭璞注本）",
        "source_quote": "吉日甲子，天子宾于西王母。乃执白圭玄璧，以见西王母。",
        "commentary": "郭璞注：'西王母，西方之神也。'",
        "modern_identification": "顾实《穆天子传西征讲疏》认为西王母之邦在今新疆和田一带；王贻梁《穆天子传通释》认为在今甘肃、青海一带。西王母之邦具体位置有争议（新疆/甘肃/青海）。",
        "modern_source": "顾实《穆天子传西征讲疏》（1931）；王贻梁《穆天子传通释》（2010）",
        "precision": "disputed",
        "precision_note": "西王母之邦具体位置有争议（新疆/甘肃/青海）。",
        "coordinates_basis": "按古籍相对方位推算的示意坐标（WGS84）。郭璞注'西王母，西方之神也'，顾实认为西王母之邦在今新疆和田一带。此处取今新疆和田作为示意坐标。",
        "modern_coordinates": [86.0, 40.0],
        "confidence": 0.35,
        "dispute": "西王母之邦具体位置有争议（新疆/甘肃/青海）。",
        "tags": ["周穆王", "西王母", "西巡", "见西王母"]
      }
    },
    {
      "type": "Feature",
      "geometry": {
        "type": "Point",
        "coordinates": [86.0, 40.0]
      },
      "properties": {
        "id": "07-02",
        "name": "瑶池宴",
        "category": "周穆王西巡",
        "stage": "07_mu_tianzi",
        "source_text": "《穆天子传》卷三（郭璞注本）",
        "source_quote": "乙丑，天子觞西王母于瑶池之上。西王母为天子谣曰：'白云在天，山陵自出。道里悠远，山川间之。将子无死，尚能复来。'天子答之曰：'予归东土，和治诸夏。万民平均，吾顾见汝。比及三年，将复而野。'",
        "commentary": "郭璞注：'瑶池，西王母所居。'",
        "modern_identification": "顾实认为瑶池在今新疆天池；王贻梁认为瑶池在今青海湖一带。瑶池具体位置有争议（新疆天池/青海湖/其他）。",
        "modern_source": "顾实《穆天子传西征讲疏》（1931）；王贻梁《穆天子传通释》（2010）",
        "precision": "disputed",
        "precision_note": "瑶池具体位置有争议（新疆天池/青海湖/其他）。",
        "coordinates_basis": "按古籍相对方位推算的示意坐标（WGS84）。郭璞注'瑶池，西王母所居'，顾实认为瑶池在今新疆天池。此处取今新疆天池作为示意坐标。",
        "modern_coordinates": [86.0, 40.0],
        "confidence": 0.3,
        "dispute": "瑶池具体位置有争议（新疆天池/青海湖/其他）。",
        "tags": ["周穆王", "西王母", "瑶池", "宴"]
      }
    },
    {
      "type": "Feature",
      "geometry": {
        "type": "Point",
        "coordinates": [95.0, 40.0]
      },
      "properties": {
        "id": "07-03",
        "name": "升昆仑观黄帝之宫",
        "category": "周穆王西巡",
        "stage": "07_mu_tianzi",
        "source_text": "《穆天子传》卷二（郭璞注本）",
        "source_quote": "天子升于昆仑之丘，以观黄帝之宫，而丰隆之葬，以诏后世。",
        "commentary": "郭璞注：'昆仑之丘，黄帝之宫。'",
        "modern_identification": "顾实认为昆仑之丘在今新疆昆仑山；王贻梁认为昆仑之丘在今甘肃祁连山一带。昆仑之丘具体位置有争议（新疆昆仑山/甘肃祁连山/其他）。",
        "modern_source": "顾实《穆天子传西征讲疏》（1931）；王贻梁《穆天子传通释》（2010）",
        "precision": "disputed",
        "precision_note": "昆仑之丘具体位置有争议（新疆昆仑山/甘肃祁连山/其他）。",
        "coordinates_basis": "按古籍相对方位推算的示意坐标（WGS84）。郭璞注'昆仑之丘，黄帝之宫'，顾实认为昆仑之丘在今新疆昆仑山。此处取今新疆昆仑山作为示意坐标。",
        "modern_coordinates": [95.0, 40.0],
        "confidence": 0.3,
        "dispute": "昆仑之丘具体位置有争议（新疆昆仑山/甘肃祁连山/其他）。",
        "tags": ["周穆王", "昆仑", "黄帝之宫", "西巡"]
      }
    },
    {
      "type": "Feature",
      "geometry": {
        "type": "Point",
        "coordinates": [94.0, 40.0]
      },
      "properties": {
        "id": "07-04",
        "name": "纪迹弇山",
        "category": "周穆王西巡",
        "stage": "07_mu_tianzi",
        "source_text": "《穆天子传》卷二（郭璞注本）",
        "source_quote": "天子乃遂东征，南绝沙衍，遂至于弇山。天子乃至于弇山，树之竹，是曰竹林。",
        "commentary": "郭璞注：'弇山，山名。'",
        "modern_identification": "顾实认为弇山在今甘肃敦煌一带；王贻梁认为弇山在今新疆东部。弇山具体位置有争议。",
        "modern_source": "顾实《穆天子传西征讲疏》（1931）；王贻梁《穆天子传通释》（2010）",
        "precision": "disputed",
        "precision_note": "弇山具体位置有争议。",
        "coordinates_basis": "按古籍相对方位推算的示意坐标（WGS84）。郭璞注'弇山，山名'，顾实认为弇山在今甘肃敦煌一带。此处取今甘肃敦煌作为示意坐标。",
        "modern_coordinates": [94.0, 40.0],
        "confidence": 0.3,
        "dispute": "弇山具体位置有争议。",
        "tags": ["周穆王", "弇山", "纪迹", "西巡"]
      }
    }
  ]
}
