{
  "type": "FeatureCollection",
  "revision_id": "myth-atlas-2026-09-30-v1",
  "note": "Natural Earth 1:110m 现代地理参照；海岸和河道不代表上古复原。",
  "features": [
    {
      "type": "Feature",
      "geometry": {
        "type": "Polygon",
        "coordinates": [
          [
            [
              121.937601,
              18.218552
            ],
            [
              122.246006,
              18.47895
            ],
            [
              122.336957,
              18.224883
            ],
            [
              122.174279,
              17.810283
            ],
            [
              122.515654,
              17.093505
            ],
            [
              122.4860245417352,
              17.0
            ],
            [
              120.35039079496526,
              17.0
            ],
            [
              120.390047,
              17.599081
            ],
            [
              120.715867,
              18.505227
            ],
            [
              121.321308,
              18.504065
            ],
            [
              121.937601,
              18.218552
            ]
          ]
        ]
      },
      "properties": {
        "name": null,
        "layer_role": "modern_geographic_reference"
      }
    },
    {
      "type": "Feature",
      "geometry": {
        "type": "Polygon",
        "coordinates": [
          [
            [
              109.47521,
              18.197701
            ],
            [
              108.655208,
              18.507682
            ],
            [
              108.626217,
              19.367888
            ],
            [
              109.119056,
              19.821039
            ],
            [
              110.211599,
              20.101254
            ],
            [
              110.786551,
              20.077534
            ],
            [
              111.010051,
              19.69593
            ],
            [
              110.570647,
              19.255879
            ],
            [
              110.339188,
              18.678395
            ],
            [
              109.47521,
              18.197701
            ]
          ]
        ]
      },
      "properties": {
        "name": null,
        "layer_role": "modern_geographic_reference"
      }
    },
    {
      "type": "Feature",
      "geometry": {
        "type": "Polygon",
        "coordinates": [
          [
            [
              120.74708,
              21.970571
            ],
            [
              120.220083,
              22.814861
            ],
            [
              120.106189,
              23.556263
            ],
            [
              120.69468,
              24.538451
            ],
            [
              121.495044,
              25.295459
            ],
            [
              121.951244,
              24.997596
            ],
            [
              121.777818,
              24.394274
            ],
            [
              121.175632,
              22.790857
            ],
            [
              120.74708,
              21.970571
            ]
          ]
        ]
      },
      "properties": {
        "name": null,
        "layer_role": "modern_geographic_reference"
      }
    },
    {
      "type": "Feature",
      "geometry": {
        "type": "Polygon",
        "coordinates": [
          [
            [
              134.766379,
              33.806335
            ],
            [
              134.203416,
              33.201178
            ],
            [
              133.79295,
              33.521985
            ],
            [
              133.280268,
              33.28957
            ],
            [
              133.014858,
              32.704567
            ],
            [
              132.363115,
              32.989382
            ],
            [
              132.371176,
              33.463642
            ],
            [
              132.924373,
              34.060299
            ],
            [
              133.492968,
              33.944621
            ],
            [
              133.904106,
              34.364931
            ],
            [
              134.638428,
              34.149234
            ],
            [
              134.766379,
              33.806335
            ]
          ]
        ]
      },
      "properties": {
        "name": null,
        "layer_role": "modern_geographic_reference"
      }
    },
    {
      "type": "Feature",
      "geometry": {
        "type": "Polygon",
        "coordinates": [
          [
            [
              135.792983,
              33.464805
            ],
            [
              135.120983,
              33.849071
            ],
            [
              135.079435,
              34.596545
            ],
            [
              133.340316,
              34.375938
            ],
            [
              132.156771,
              33.904933
            ],
            [
              130.986145,
              33.885761
            ],
            [
              132.000036,
              33.149992
            ],
            [
              131.33279,
              31.450355
            ],
            [
              130.686318,
              31.029579
            ],
            [
              130.20242,
              31.418238
            ],
            [
              130.447676,
              32.319475
            ],
            [
              129.814692,
              32.61031
            ],
            [
              129.408463,
              33.296056
            ],
            [
              130.353935,
              33.604151
            ],
            [
              130.878451,
              34.232743
            ],
            [
              131.884229,
              34.749714
            ],
            [
              132.617673,
              35.433393
            ],
            [
              134.608301,
              35.731618
            ],
            [
              135.677538,
              35.527134
            ],
            [
              136.723831,
              37.304984
            ],
            [
              137.0,
              37.10717335270051
            ],
            [
              137.0,
              34.43193366637535
            ],
            [
              135.792983,
              33.464805
            ]
          ]
        ]
      },
      "properties": {
        "name": null,
        "layer_role": "modern_geographic_reference"
      }
    },
    {
      "type": "Feature",
      "geometry": {
        "type": "Polygon",
        "coordinates": [
          [
            [
              135.126282,
              54.729675
            ],
            [
              136.701721,
              54.603699
            ],
            [
              137.0,
              54.22375114186594
            ],
            [
              137.0,
              45.26161195702442
            ],
            [
              136.862305,
              45.143494
            ],
            [
              135.51532,
              43.989075
            ],
            [
              134.869507,
              43.398315
            ],
            [
              133.536926,
              42.811523
            ],
            [
              132.906311,
              42.798523
            ],
            [
              132.278076,
              43.284485
            ],
            [
              130.935913,
              42.552673
            ],
            [
              130.78009,
              42.220093
            ],
            [
              130.400085,
              42.28009
            ],
            [
              129.965881,
              41.941284
            ],
            [
              129.66748,
              41.601074
            ],
            [
              129.705322,
              40.882874
            ],
            [
              129.18811,
              40.661926
            ],
            [
              129.010498,
              40.485474
            ],
            [
              128.633484,
              40.18988
            ],
            [
              127.967529,
              40.025513
            ],
            [
              127.533508,
              39.756897
            ],
            [
              127.502075,
              39.323914
            ],
            [
              127.385498,
              39.213501
            ],
            [
              127.783325,
              39.050903
            ],
            [
              128.34967,
              38.612305
            ],
            [
              129.212891,
              37.432495
            ],
            [
              129.46051,
              36.784302
            ],
            [
              129.468323,
              35.63208
            ],
            [
              129.091492,
              35.08252
            ],
            [
              128.185913,
              34.890503
            ],
            [
              127.386475,
              34.475708
            ],
            [
              126.485718,
              34.390076
            ],
            [
              126.373901,
              34.934692
            ],
            [
              126.559326,
              35.684692
            ],
            [
              126.117493,
              36.725525
            ],
            [
              126.860291,
              36.893921
            ],
            [
              126.174683,
              37.749695
            ],
            [
              125.689087,
              37.940125
            ],
            [
              125.568481,
              37.752075
            ],
            [
              125.27533,
              37.669128
            ],
            [
              125.240112,
              37.8573
            ],
            [
              124.981079,
              37.948914
            ],
            [
              124.71228,
              38.108276
            ],
            [
              124.986084,
              38.548523
            ],
            [
              125.221924,
              38.665894
            ],
            [
              125.132874,
              38.848694
            ],
            [
              125.386719,
              39.387878
            ],
            [
              125.321106,
              39.551514
            ],
            [
              124.737488,
              39.660278
            ],
            [
              124.265686,
              39.928528
            ],
            [
              122.867676,
              39.637878
            ],
            [
              122.131531,
              39.170471
            ],
            [
              121.054688,
              38.897522
            ],
            [
              121.586121,
              39.360901
            ],
            [
              121.376892,
              39.750305
            ],
            [
              122.168701,
              40.422485
            ],
            [
              121.640503,
              40.946472
            ],
            [
              120.768677,
              40.593506
            ],
            [
              119.639709,
              39.898071
            ],
            [
              119.023499,
              39.252319
            ],
            [
              118.042725,
              39.204285
            ],
            [
              117.532715,
              38.737671
            ],
            [
              118.059692,
              38.061523
            ],
            [
              118.878296,
              37.897278
            ],
            [
              118.911682,
              37.448486
            ],
            [
              119.702881,
              37.156494
            ],
            [
              120.823486,
              37.870483
            ],
            [
              121.711304,
              37.481079
            ],
            [
              122.35791,
              37.454529
            ],
            [
              122.520081,
              36.930725
            ],
            [
              121.104309,
              36.651306
            ],
            [
              120.637085,
              36.111511
            ],
            [
              119.664673,
              35.609924
            ],
            [
              119.151306,
              34.909912
            ],
            [
              120.227478,
              34.360474
            ],
            [
              120.620483,
              33.376709
            ],
            [
              121.229126,
              32.460327
            ],
            [
              121.908081,
              31.692322
            ],
            [
              121.891907,
              30.94928
            ],
            [
              121.264282,
              30.676331
            ],
            [
              121.503479,
              30.142883
            ],
            [
              122.092102,
              29.83252
            ],
            [
              121.938477,
              29.018127
            ],
            [
              121.684509,
              28.225525
            ],
            [
              121.125671,
              28.135681
            ],
            [
              120.395508,
              27.053284
            ],
            [
              119.58551,
              25.740906
            ],
            [
              118.656921,
              24.547485
            ],
            [
              117.281677,
              23.624512
            ],
            [
              115.890686,
              22.782898
            ],
            [
              114.763916,
              22.668091
            ],
            [
              114.152527,
              22.223877
            ],
            [
              113.806885,
              22.548279
            ],
            [
              113.241089,
              22.051514
            ],
            [
              111.843689,
              21.550476
            ],
            [
              110.785522,
              21.397278
            ],
            [
              110.444092,
              20.341125
            ],
            [
              109.889893,
              20.282471
            ],
            [
              109.627686,
              21.008301
            ],
            [
              109.864502,
              21.395081
            ],
            [
              108.522888,
              21.715271
            ],
            [
              108.050293,
              21.55249
            ],
            [
              106.715088,
              20.696899
            ],
            [
              105.881714,
              19.752075
            ],
            [
              105.662109,
              19.058289
            ],
            [
              106.42688,
              18.004089
            ],
            [
              107.14541305673289,
              17.0
            ],
            [
              94.45639933129598,
              17.0
            ],
            [
              94.533508,
              17.277283
            ],
            [
              94.32489,
              18.213501
            ],
            [
              93.541077,
              19.366516
            ],
            [
              93.66333,
              19.727112
            ],
            [
              93.078308,
              19.855286
            ],
            [
              92.36853,
              20.670898
            ],
            [
              92.082886,
              21.192322
            ],
            [
              92.02533,
              21.701721
            ],
            [
              91.8349,
              22.182922
            ],
            [
              91.417114,
              22.765076
            ],
            [
              90.496094,
              22.805115
            ],
            [
              90.587097,
              22.392883
            ],
            [
              90.272888,
              21.836487
            ],
            [
              89.847473,
              22.039124
            ],
            [
              89.702087,
              21.857117
            ],
            [
              89.418884,
              21.966309
            ],
            [
              89.032104,
              22.055725
            ],
            [
              88.888916,
              21.690674
            ],
            [
              88.208496,
              21.703308
            ],
            [
              86.975708,
              21.495483
            ],
            [
              87.033081,
              20.743286
            ],
            [
              86.499329,
              20.151672
            ],
            [
              85.060303,
              19.478699
            ],
            [
              83.941101,
              18.302124
            ],
            [
              83.18927,
              17.671326
            ],
            [
              82.192871,
              17.016724
            ],
            [
              82.19281330495933,
              17.0
            ],
            [
              73.31847318277667,
              17.0
            ],
            [
              73.119873,
              17.928711
            ],
            [
              72.820923,
              19.208313
            ],
            [
              72.824524,
              20.419495
            ],
            [
              72.630676,
              21.356079
            ],
            [
              72.0,
              21.09669367347633
            ],
            [
              72.0,
              55.0
            ],
            [
              135.56553899152263,
              55.0
            ],
            [
              135.126282,
              54.729675
            ]
          ]
        ]
      },
      "properties": {
        "name": null,
        "layer_role": "modern_geographic_reference"
      }
    }
  ]
}
