{
  "type": "FeatureCollection",
  "revision_id": "myth-atlas-2026-09-30-v1",
  "note": "Natural Earth 1:110m 现代地理参照；海岸和河道不代表上古复原。",
  "features": [
    {
      "type": "Feature",
      "geometry": {
        "type": "LineString",
        "coordinates": [
          [
            82.40048,
            30.411477
          ],
          [
            82.722734,
            30.365046
          ],
          [
            83.761017,
            29.833321
          ],
          [
            84.066735,
            29.613283
          ],
          [
            84.379067,
            29.494505
          ],
          [
            84.707212,
            29.296352
          ],
          [
            85.408668,
            29.274389
          ],
          [
            87.66021,
            29.151528
          ],
          [
            87.78873,
            29.265604
          ],
          [
            87.984118,
            29.342034
          ],
          [
            88.630797,
            29.350664
          ],
          [
            91.037989,
            29.316505
          ],
          [
            92.095495,
            29.253409
          ],
          [
            93.25005,
            29.069802
          ],
          [
            93.607496,
            29.108585
          ],
          [
            94.356029,
            29.309529
          ],
          [
            94.820394,
            29.542151
          ],
          [
            95.150606,
            29.810119
          ],
          [
            95.265431,
            29.828541
          ],
          [
            95.336021,
            29.740717
          ],
          [
            95.372608,
            29.595739
          ],
          [
            95.316901,
            29.417688
          ],
          [
            94.876462,
            28.967948
          ],
          [
            94.87083,
            28.831961
          ],
          [
            95.043532,
            28.511232
          ],
          [
            95.087922,
            28.217244
          ],
          [
            95.396482,
            28.002916
          ],
          [
            95.38284,
            27.904344
          ],
          [
            95.289926,
            27.787865
          ],
          [
            94.831504,
            27.464164
          ],
          [
            94.3952,
            27.042407
          ],
          [
            93.751622,
            26.732038
          ],
          [
            92.677889,
            26.555124
          ],
          [
            92.322251,
            26.464431
          ],
          [
            91.683427,
            26.21486
          ],
          [
            91.250379,
            26.183208
          ],
          [
            90.606077,
            26.180831
          ],
          [
            90.334052,
            26.134762
          ],
          [
            90.11236,
            26.029523
          ],
          [
            89.924982,
            25.873796
          ],
          [
            89.788039,
            25.632105
          ],
          [
            89.612649,
            24.948374
          ],
          [
            89.714194,
            24.584624
          ],
          [
            89.744424,
            23.858673
          ],
          [
            90.0057,
            23.659021
          ],
          [
            90.225687,
            23.418416
          ],
          [
            90.387279,
            23.119829
          ],
          [
            90.50753,
            22.780238
          ]
        ]
      },
      "properties": {
        "name": "Brahmaputra",
        "layer_role": "modern_geographic_reference"
      }
    },
    {
      "type": "Feature",
      "geometry": {
        "type": "LineString",
        "coordinates": [
          [
            94.084004,
            33.155858
          ],
          [
            94.447703,
            33.163299
          ],
          [
            94.94142,
            33.089273
          ],
          [
            95.840435,
            32.632272
          ],
          [
            96.239325,
            32.52587
          ],
          [
            96.941298,
            31.965543
          ],
          [
            97.16516,
            31.488518
          ],
          [
            97.256782,
            31.096474
          ],
          [
            97.846255,
            30.277739
          ],
          [
            98.284575,
            29.666897
          ],
          [
            98.623986,
            28.963116
          ],
          [
            99.028095,
            27.516279
          ],
          [
            99.150155,
            27.02786
          ],
          [
            99.172583,
            26.026448
          ],
          [
            99.240279,
            25.668253
          ],
          [
            99.391277,
            25.344758
          ],
          [
            99.666816,
            25.013564
          ],
          [
            99.916568,
            24.833833
          ],
          [
            100.300317,
            24.721463
          ],
          [
            100.421292,
            24.647256
          ],
          [
            100.487334,
            24.525945
          ],
          [
            100.519942,
            24.377918
          ],
          [
            100.475552,
            24.163978
          ],
          [
            100.138519,
            23.473115
          ],
          [
            100.122395,
            23.311136
          ],
          [
            100.171488,
            23.106574
          ],
          [
            100.983738,
            21.844972
          ],
          [
            101.018258,
            21.797714
          ],
          [
            101.150033,
            21.849984
          ],
          [
            101.180005,
            21.436573
          ],
          [
            100.329101,
            20.786122
          ],
          [
            100.115988,
            20.41785
          ],
          [
            100.548881,
            20.109238
          ],
          [
            100.559087,
            20.002371
          ],
          [
            100.569293,
            19.89553
          ],
          [
            100.597302,
            19.89305
          ],
          [
            101.11479,
            19.852148
          ],
          [
            101.471564,
            19.870131
          ],
          [
            102.184802,
            20.048906
          ],
          [
            101.883735,
            19.555189
          ],
          [
            101.764828,
            18.721777
          ],
          [
            101.492286,
            18.160029
          ],
          [
            101.485981,
            17.969704
          ],
          [
            101.563651,
            17.820515
          ],
          [
            101.585975,
            17.810464
          ],
          [
            102.113592,
            18.109102
          ],
          [
            102.413005,
            17.932782
          ],
          [
            102.998706,
            17.961695
          ],
          [
            103.200192,
            18.309632
          ],
          [
            103.956477,
            18.240954
          ],
          [
            104.716947,
            17.428859
          ],
          [
            104.74404914172122,
            17.0
          ]
        ]
      },
      "properties": {
        "name": "Mekong",
        "layer_role": "modern_geographic_reference"
      }
    },
    {
      "type": "Feature",
      "geometry": {
        "type": "LineString",
        "coordinates": [
          [
            90.325371,
            47.650167
          ],
          [
            90.20052,
            47.408011
          ],
          [
            89.733417,
            47.162496
          ],
          [
            89.3969,
            47.069143
          ],
          [
            89.048136,
            47.087436
          ],
          [
            86.943562,
            47.660114
          ],
          [
            86.400132,
            47.856562
          ],
          [
            85.267075,
            47.994383
          ],
          [
            84.356846,
            47.732126
          ],
          [
            83.835638,
            48.035518
          ],
          [
            83.619734,
            48.193984
          ],
          [
            83.551159,
            48.313124
          ],
          [
            83.491576,
            48.778573
          ],
          [
            83.61901,
            48.896499
          ],
          [
            83.868401,
            49.025354
          ],
          [
            84.011648,
            49.175913
          ],
          [
            83.882767,
            49.346239
          ],
          [
            83.363728,
            49.643843
          ],
          [
            82.484816,
            50.060407
          ],
          [
            82.140031,
            50.182157
          ],
          [
            81.781086,
            50.251868
          ],
          [
            80.427784,
            50.385194
          ],
          [
            78.545315,
            50.767289
          ],
          [
            77.242862,
            51.869031
          ],
          [
            76.998846,
            52.1301
          ],
          [
            76.606105,
            52.69252
          ],
          [
            76.327879,
            52.901784
          ],
          [
            75.589526,
            53.296489
          ],
          [
            75.309336,
            53.496322
          ],
          [
            75.117824,
            53.687886
          ],
          [
            75.021912,
            53.847902
          ],
          [
            74.993593,
            53.985594
          ],
          [
            74.519927,
            54.375286
          ],
          [
            74.396175,
            54.42505
          ],
          [
            74.123685,
            54.534527
          ],
          [
            73.850614,
            54.644003
          ],
          [
            73.725092,
            54.693768
          ],
          [
            73.633211,
            54.741349
          ],
          [
            73.465896,
            54.829716
          ],
          [
            73.376121,
            54.877297
          ],
          [
            73.27358785512928,
            55.0
          ]
        ]
      },
      "properties": {
        "name": "Ob",
        "layer_role": "modern_geographic_reference"
      }
    },
    {
      "type": "Feature",
      "geometry": {
        "type": "LineString",
        "coordinates": [
          [
            107.980107,
            54.004146
          ],
          [
            108.043359,
            54.102047
          ],
          [
            108.040672,
            54.185013
          ],
          [
            107.78291,
            54.293792
          ],
          [
            107.181706,
            53.92136
          ],
          [
            107.023163,
            53.871131
          ],
          [
            106.927148,
            53.884334
          ],
          [
            106.107353,
            53.885445
          ],
          [
            105.665416,
            54.021664
          ],
          [
            105.287765,
            54.385001
          ],
          [
            105.155267,
            54.88094
          ],
          [
            105.16524481153888,
            55.0
          ]
        ]
      },
      "properties": {
        "name": "Lena",
        "layer_role": "modern_geographic_reference"
      }
    },
    {
      "type": "Feature",
      "geometry": {
        "type": "LineString",
        "coordinates": [
          [
            90.794696,
            34.300413
          ],
          [
            91.151574,
            34.320903
          ],
          [
            92.992805,
            34.100296
          ],
          [
            93.837611,
            34.320903
          ],
          [
            94.155835,
            34.556392
          ],
          [
            94.388947,
            34.653828
          ],
          [
            94.681694,
            34.674525
          ],
          [
            95.004052,
            34.601713
          ],
          [
            95.37483,
            34.406582
          ],
          [
            96.003784,
            33.884082
          ],
          [
            96.409857,
            33.680942
          ],
          [
            97.032817,
            33.23686
          ],
          [
            97.450155,
            32.780893
          ],
          [
            98.161792,
            32.286583
          ],
          [
            98.375319,
            32.009752
          ],
          [
            98.54151,
            31.689797
          ],
          [
            98.774157,
            31.359688
          ],
          [
            98.69871,
            31.150941
          ],
          [
            98.909033,
            30.675854
          ],
          [
            98.984377,
            30.342774
          ],
          [
            99.096412,
            29.250489
          ],
          [
            99.232217,
            28.433381
          ],
          [
            99.275367,
            28.35367
          ],
          [
            99.355466,
            28.204997
          ],
          [
            99.398615,
            28.123012
          ],
          [
            99.434556,
            28.016572
          ],
          [
            99.513647,
            27.78572
          ],
          [
            99.592738,
            27.555508
          ],
          [
            99.628679,
            27.450986
          ],
          [
            99.798229,
            27.165009
          ],
          [
            99.980492,
            27.080621
          ],
          [
            100.140379,
            27.245547
          ],
          [
            100.246005,
            27.495661
          ],
          [
            100.371269,
            27.658519
          ],
          [
            100.470074,
            27.569119
          ],
          [
            100.511984,
            27.360372
          ],
          [
            100.440619,
            26.798649
          ],
          [
            100.453176,
            26.376116
          ],
          [
            100.504904,
            26.240776
          ],
          [
            100.614769,
            26.215144
          ],
          [
            101.002187,
            26.258449
          ],
          [
            101.663025,
            26.529854
          ],
          [
            101.823067,
            26.529544
          ],
          [
            101.886112,
            26.410481
          ],
          [
            101.912157,
            26.220906
          ],
          [
            101.996545,
            26.104273
          ],
          [
            102.442977,
            26.277001
          ],
          [
            102.756395,
            26.312554
          ],
          [
            102.897368,
            26.393221
          ],
          [
            102.980929,
            26.592176
          ],
          [
            102.957778,
            27.223662
          ],
          [
            103.025164,
            27.373523
          ],
          [
            103.147017,
            27.434346
          ],
          [
            103.470615,
            27.885301
          ],
          [
            103.543634,
            28.146138
          ],
          [
            103.789769,
            28.332224
          ],
          [
            103.845631,
            28.483068
          ],
          [
            103.850747,
            28.668044
          ],
          [
            104.325601,
            28.667191
          ],
          [
            104.741235,
            28.77721
          ],
          [
            105.112789,
            28.766927
          ],
          [
            105.547129,
            28.880486
          ],
          [
            105.820032,
            28.876894
          ],
          [
            105.905712,
            29.012028
          ],
          [
            106.614299,
            29.548739
          ],
          [
            107.604316,
            29.923678
          ],
          [
            107.88988,
            30.141261
          ],
          [
            108.308149,
            30.579529
          ],
          [
            108.401993,
            30.73598
          ],
          [
            108.57604,
            30.859745
          ],
          [
            108.863567,
            30.937285
          ],
          [
            109.460017,
            31.01002
          ],
          [
            110.255782,
            31.022706
          ],
          [
            110.827582,
            30.921705
          ],
          [
            111.215052,
            30.728977
          ],
          [
            111.533585,
            30.379748
          ],
          [
            112.032573,
            30.351739
          ],
          [
            112.207963,
            30.220326
          ],
          [
            112.440403,
            29.818232
          ],
          [
            112.595794,
            29.741234
          ],
          [
            112.781881,
            29.743947
          ],
          [
            112.915826,
            29.709996
          ],
          [
            112.956547,
            29.550936
          ],
          [
            113.1277,
            29.462776
          ],
          [
            113.65759,
            29.893524
          ],
          [
            113.934989,
            30.064005
          ],
          [
            113.922845,
            30.21844
          ],
          [
            114.050538,
            30.301768
          ],
          [
            114.303235,
            30.593043
          ],
          [
            114.543531,
            30.595445
          ],
          [
            114.78765,
            30.517931
          ],
          [
            115.390352,
            30.013155
          ],
          [
            115.679172,
            29.856137
          ],
          [
            115.976105,
            29.805442
          ],
          [
            116.263374,
            29.838722
          ],
          [
            116.695337,
            30.049536
          ],
          [
            116.95434,
            30.40817
          ],
          [
            117.326617,
            30.694768
          ],
          [
            117.598951,
            30.815432
          ],
          [
            117.877332,
            31.104975
          ],
          [
            118.273019,
            31.382219
          ],
          [
            118.550366,
            31.820849
          ],
          [
            118.738003,
            32.02218
          ],
          [
            119.004447,
            32.150699
          ],
          [
            119.331817,
            32.204908
          ],
          [
            119.745849,
            32.137031
          ],
          [
            120.577426,
            31.613755
          ],
          [
            120.921229,
            31.51619
          ],
          [
            121.858226,
            31.414904
          ]
        ]
      },
      "properties": {
        "name": "Chang",
        "layer_role": "modern_geographic_reference"
      }
    },
    {
      "type": "Feature",
      "geometry": {
        "type": "LineString",
        "coordinates": [
          [
            116.19759,
            29.751388
          ],
          [
            116.211853,
            29.785159
          ]
        ]
      },
      "properties": {
        "name": "Yangtze",
        "layer_role": "modern_geographic_reference"
      }
    }
  ]
}
